SL-14 R/B               
1 16792U 86046B   25352.91163925  .00000447  00000+0  48731-4 0  9993
2 16792  82.4813 156.4851 0024213 132.6063 227.7201 14.85491260114418
SL-14 R/B               
1 16882U 86055B   25352.70915161  .00000370  00000+0  39990-4 0  9999
2 16882  82.5198 202.7636 0017628 237.9916 191.5858 14.85536373107344
AJISAI (EGS)            
1 16908U 86061A   25352.93154544 -.00000093  00000+0  32694-4 0  9997
2 16908  50.0113 341.6778 0011312  81.4430   9.6921 12.44514357457942
COSMOS 1812             
1 17295U 87003A   25352.88887471  .00094735  00000+0  58666-3 0  9991
2 17295  82.4878 285.3537 0006968  77.5013 282.7032 15.76728032131626
SL-14 R/B               
1 17567U 87024B   25352.90699941  .00000442  00000+0  47646-4 0  9991
2 17567  82.5275 168.6608 0018622 163.8397 196.3418 14.86029998 76133
COSMOS 1833             
1 17589U 87027A   25352.80581523  .00000194  00000+0  12924-3 0  9997
2 17589  70.9146 136.0250 0022786 323.2412  36.7145 14.13024370998881
SL-16 R/B               
1 17590U 87027B   25352.66102360  .00000237  00000+0  14145-3 0  9996
2 17590  71.0036  87.2413 0007274 253.1914 106.8412 14.17154408  3865
SL-14 R/B               
1 17912U 87038B   25352.52359123  .00000361  00000+0  39100-4 0  9999
2 17912  82.5012  13.2529 0020836  74.4084 285.9430 14.85266252 67182
COSMOS 1844             
1 17973U 87041A   25352.92643220  .00000185  00000+0  12117-3 0  9990
2 17973  70.8964 204.5223 0029869 147.3133 212.9846 14.14527378992168
SL-14 R/B               
1 18153U 87055B   25352.71651871  .00000379  00000+0  41003-4 0  9996
2 18153  82.4997  65.3559 0019200 282.1510  77.7555 14.85527130 57917
COSMOS 1867             
1 18187U 87060A   25352.89047674 -.00000045  00000+0  20843-4 0  9998
2 18187  65.0086 172.9778 0013637 271.7149  88.2373 14.31487068  8375
SL-14 R/B               
1 18749U 88001B   25352.84124625  .00000397  00000+0  43108-4 0  9993
2 18749  82.5135 271.4087 0018986 141.6677 218.5893 14.85430099 30022
