CCSDS_OMM_VERS = 2.0
CREATION_DATE  = 
ORIGINATOR     = 

OBJECT_NAME    = SL-14 R/B
OBJECT_ID      = 1986-046B
CENTER_NAME    = EARTH
REF_FRAME      = TEME
TIME_SYSTEM    = UTC
MEAN_ELEMENT_THEORY = SGP/SGP4

EPOCH          = 2025-12-18T21:52:45.631200
MEAN_MOTION    = 14.85491260
ECCENTRICITY   = .00242137
INCLINATION    = 82.4813
RA_OF_ASC_NODE = 156.4851
ARG_OF_PERICENTER = 132.6063
MEAN_ANOMALY   = 227.7201

EPHEMERIS_TYPE = 0
CLASSIFICATION_TYPE = U
NORAD_CAT_ID   = 16792
ELEMENT_SET_NO = 999
REV_AT_EPOCH   = 11441
BSTAR          = .48731135E-4
MEAN_MOTION_DOT = .447E-5
MEAN_MOTION_DDOT = 0

CCSDS_OMM_VERS = 2.0
CREATION_DATE  = 
ORIGINATOR     = 

OBJECT_NAME    = SL-14 R/B
OBJECT_ID      = 1986-055B
CENTER_NAME    = EARTH
REF_FRAME      = TEME
TIME_SYSTEM    = UTC
MEAN_ELEMENT_THEORY = SGP/SGP4

EPOCH          = 2025-12-18T17:01:10.699104
MEAN_MOTION    = 14.85536373
ECCENTRICITY   = .00176284
INCLINATION    = 82.5198
RA_OF_ASC_NODE = 202.7636
ARG_OF_PERICENTER = 237.9916
MEAN_ANOMALY   = 191.5858

EPHEMERIS_TYPE = 0
CLASSIFICATION_TYPE = U
NORAD_CAT_ID   = 16882
ELEMENT_SET_NO = 999
REV_AT_EPOCH   = 10734
BSTAR          = .39989638E-4
MEAN_MOTION_DOT = .37E-5
MEAN_MOTION_DDOT = 0

CCSDS_OMM_VERS = 2.0
CREATION_DATE  = 
ORIGINATOR     = 

OBJECT_NAME    = AJISAI (EGS)
OBJECT_ID      = 1986-061A
CENTER_NAME    = EARTH
REF_FRAME      = TEME
TIME_SYSTEM    = UTC
MEAN_ELEMENT_THEORY = SGP/SGP4

EPOCH          = 2025-12-18T22:21:25.526016
MEAN_MOTION    = 12.44514357
ECCENTRICITY   = .00113127
INCLINATION    = 50.0113
RA_OF_ASC_NODE = 341.6778
ARG_OF_PERICENTER = 81.4430
MEAN_ANOMALY   = 9.6921

EPHEMERIS_TYPE = 0
CLASSIFICATION_TYPE = U
NORAD_CAT_ID   = 16908
ELEMENT_SET_NO = 999
REV_AT_EPOCH   = 45794
BSTAR          = .32694312E-4
MEAN_MOTION_DOT = -.93E-6
MEAN_MOTION_DDOT = 0

CCSDS_OMM_VERS = 2.0
CREATION_DATE  = 
ORIGINATOR     = 

OBJECT_NAME    = COSMOS 1812
OBJECT_ID      = 1987-003A
CENTER_NAME    = EARTH
REF_FRAME      = TEME
TIME_SYSTEM    = UTC
MEAN_ELEMENT_THEORY = SGP/SGP4

EPOCH          = 2025-12-18T21:19:58.774944
MEAN_MOTION    = 15.76728032
ECCENTRICITY   = .00069686
INCLINATION    = 82.4878
RA_OF_ASC_NODE = 285.3537
ARG_OF_PERICENTER = 77.5013
MEAN_ANOMALY   = 282.7032

EPHEMERIS_TYPE = 0
CLASSIFICATION_TYPE = U
NORAD_CAT_ID   = 17295
ELEMENT_SET_NO = 999
REV_AT_EPOCH   = 13162
BSTAR          = .58665998E-3
MEAN_MOTION_DOT = .94735E-3
MEAN_MOTION_DDOT = 0

CCSDS_OMM_VERS = 2.0
CREATION_DATE  = 
ORIGINATOR     = 

OBJECT_NAME    = SL-14 R/B
OBJECT_ID      = 1987-024B
CENTER_NAME    = EARTH
REF_FRAME      = TEME
TIME_SYSTEM    = UTC
MEAN_ELEMENT_THEORY = SGP/SGP4

EPOCH          = 2025-12-18T21:46:04.749024
MEAN_MOTION    = 14.86029998
ECCENTRICITY   = .00186224
INCLINATION    = 82.5275
RA_OF_ASC_NODE = 168.6608
ARG_OF_PERICENTER = 163.8397
MEAN_ANOMALY   = 196.3418

EPHEMERIS_TYPE = 0
CLASSIFICATION_TYPE = U
NORAD_CAT_ID   = 17567
ELEMENT_SET_NO = 999
REV_AT_EPOCH   = 7613
BSTAR          = .47645741E-4
MEAN_MOTION_DOT = .442E-5
MEAN_MOTION_DDOT = 0

CCSDS_OMM_VERS = 2.0
CREATION_DATE  = 
ORIGINATOR     = 

OBJECT_NAME    = COSMOS 1833
OBJECT_ID      = 1987-027A
CENTER_NAME    = EARTH
REF_FRAME      = TEME
TIME_SYSTEM    = UTC
MEAN_ELEMENT_THEORY = SGP/SGP4

EPOCH          = 2025-12-18T19:20:22.435872
MEAN_MOTION    = 14.13024370
ECCENTRICITY   = .0022786
INCLINATION    = 70.9146
RA_OF_ASC_NODE = 136.0250
ARG_OF_PERICENTER = 323.2412
MEAN_ANOMALY   = 36.7145

EPHEMERIS_TYPE = 0
CLASSIFICATION_TYPE = U
NORAD_CAT_ID   = 17589
ELEMENT_SET_NO = 999
REV_AT_EPOCH   = 99888
BSTAR          = .12924334E-3
MEAN_MOTION_DOT = .194E-5
MEAN_MOTION_DDOT = 0

CCSDS_OMM_VERS = 2.0
CREATION_DATE  = 
ORIGINATOR     = 

OBJECT_NAME    = SL-16 R/B
OBJECT_ID      = 1987-027B
CENTER_NAME    = EARTH
REF_FRAME      = TEME
TIME_SYSTEM    = UTC
MEAN_ELEMENT_THEORY = SGP/SGP4

EPOCH          = 2025-12-18T15:51:52.439040
MEAN_MOTION    = 14.17154408
ECCENTRICITY   = .00072748
INCLINATION    = 71.0036
RA_OF_ASC_NODE = 87.2413
ARG_OF_PERICENTER = 253.1914
MEAN_ANOMALY   = 106.8412

EPHEMERIS_TYPE = 0
CLASSIFICATION_TYPE = U
NORAD_CAT_ID   = 17590
ELEMENT_SET_NO = 999
REV_AT_EPOCH   = 386
BSTAR          = .14145237E-3
MEAN_MOTION_DOT = .237E-5
MEAN_MOTION_DDOT = 0

CCSDS_OMM_VERS = 2.0
CREATION_DATE  = 
ORIGINATOR     = 

OBJECT_NAME    = SL-14 R/B
OBJECT_ID      = 1987-038B
CENTER_NAME    = EARTH
REF_FRAME      = TEME
TIME_SYSTEM    = UTC
MEAN_ELEMENT_THEORY = SGP/SGP4

EPOCH          = 2025-12-18T12:33:58.282272
MEAN_MOTION    = 14.85266252
ECCENTRICITY   = .00208365
INCLINATION    = 82.5012
RA_OF_ASC_NODE = 13.2529
ARG_OF_PERICENTER = 74.4084
MEAN_ANOMALY   = 285.9430

EPHEMERIS_TYPE = 0
CLASSIFICATION_TYPE = U
NORAD_CAT_ID   = 17912
ELEMENT_SET_NO = 999
REV_AT_EPOCH   = 6718
BSTAR          = .3910046E-4
MEAN_MOTION_DOT = .361E-5
MEAN_MOTION_DDOT = 0

CCSDS_OMM_VERS = 2.0
CREATION_DATE  = 
ORIGINATOR     = 

OBJECT_NAME    = COSMOS 1844
OBJECT_ID      = 1987-041A
CENTER_NAME    = EARTH
REF_FRAME      = TEME
TIME_SYSTEM    = UTC
MEAN_ELEMENT_THEORY = SGP/SGP4

EPOCH          = 2025-12-18T22:14:03.742080
MEAN_MOTION    = 14.14527378
ECCENTRICITY   = .00298698
INCLINATION    = 70.8964
RA_OF_ASC_NODE = 204.5223
ARG_OF_PERICENTER = 147.3133
MEAN_ANOMALY   = 212.9846

EPHEMERIS_TYPE = 0
CLASSIFICATION_TYPE = U
NORAD_CAT_ID   = 17973
ELEMENT_SET_NO = 999
REV_AT_EPOCH   = 99216
BSTAR          = .12117292E-3
MEAN_MOTION_DOT = .185E-5
MEAN_MOTION_DDOT = 0

CCSDS_OMM_VERS = 2.0
CREATION_DATE  = 
ORIGINATOR     = 

OBJECT_NAME    = SL-14 R/B
OBJECT_ID      = 1987-055B
CENTER_NAME    = EARTH
REF_FRAME      = TEME
TIME_SYSTEM    = UTC
MEAN_ELEMENT_THEORY = SGP/SGP4

EPOCH          = 2025-12-18T17:11:47.216544
MEAN_MOTION    = 14.85527130
ECCENTRICITY   = .00192005
INCLINATION    = 82.4997
RA_OF_ASC_NODE = 65.3559
ARG_OF_PERICENTER = 282.1510
MEAN_ANOMALY   = 77.7555

EPHEMERIS_TYPE = 0
CLASSIFICATION_TYPE = U
NORAD_CAT_ID   = 18153
ELEMENT_SET_NO = 999
REV_AT_EPOCH   = 5791
BSTAR          = .4100307E-4
MEAN_MOTION_DOT = .379E-5
MEAN_MOTION_DDOT = 0

CCSDS_OMM_VERS = 2.0
CREATION_DATE  = 
ORIGINATOR     = 

OBJECT_NAME    = COSMOS 1867
OBJECT_ID      = 1987-060A
CENTER_NAME    = EARTH
REF_FRAME      = TEME
TIME_SYSTEM    = UTC
MEAN_ELEMENT_THEORY = SGP/SGP4

EPOCH          = 2025-12-18T21:22:17.190336
MEAN_MOTION    = 14.31487068
ECCENTRICITY   = .00136375
INCLINATION    = 65.0086
RA_OF_ASC_NODE = 172.9778
ARG_OF_PERICENTER = 271.7149
MEAN_ANOMALY   = 88.2373

EPHEMERIS_TYPE = 0
CLASSIFICATION_TYPE = U
NORAD_CAT_ID   = 18187
ELEMENT_SET_NO = 999
REV_AT_EPOCH   = 837
BSTAR          = .20842877E-4
MEAN_MOTION_DOT = -.45E-6
MEAN_MOTION_DDOT = 0

CCSDS_OMM_VERS = 2.0
CREATION_DATE  = 
ORIGINATOR     = 

OBJECT_NAME    = SL-14 R/B
OBJECT_ID      = 1988-001B
CENTER_NAME    = EARTH
REF_FRAME      = TEME
TIME_SYSTEM    = UTC
MEAN_ELEMENT_THEORY = SGP/SGP4

EPOCH          = 2025-12-18T20:11:23.676000
MEAN_MOTION    = 14.85430099
ECCENTRICITY   = .0018986
INCLINATION    = 82.5135
RA_OF_ASC_NODE = 271.4087
ARG_OF_PERICENTER = 141.6677
MEAN_ANOMALY   = 218.5893

EPHEMERIS_TYPE = 0
CLASSIFICATION_TYPE = U
NORAD_CAT_ID   = 18749
ELEMENT_SET_NO = 999
REV_AT_EPOCH   = 3002
BSTAR          = .43108399E-4
MEAN_MOTION_DOT = .397E-5
MEAN_MOTION_DDOT = 0

